CHUANGXIN 1-02 (CX-1-02)
1 33434U 08056B   26132.61651172  .00000164  00000+0  80374-4 0  9995
2 33434  98.6165 159.2346 0013088 243.0391 116.9455 14.30145941913530
STARS (KUKAI)           
1 33498U 09002G   26132.55961416  .00001685  00000+0  15785-3 0  9997
2 33498  98.1530  78.4265 0007064 293.3575  66.6901 14.95498777933158
KKS-1 (KISEKI)          
1 33499U 09002H   26132.56578575  .00000818  00000+0  10738-3 0  9999
2 33499  98.1195  54.4461 0009058  52.2747 307.9286 14.83028456930914
UK-DMC 2                
1 35683U 09041C   26132.63506826  .00000586  00000+0  92298-4 0  9991
2 35683  97.8778 268.4826 0001676  81.0748 279.0652 14.75971593901324
OCEANSAT-2              
1 35931U 09051A   26132.59949954  .00000053  00000+0  61766-4 0  9991
2 35931  98.2298 123.0073 0015185 341.9178  18.1447 13.99648232874359
SWISSCUBE               
1 35932U 09051B   26132.24860677  .00000616  00000+0  13145-3 0  9990
2 35932  98.4058  39.5092 0006254 336.3034  23.7877 14.62409745883909
BEESAT-1                
1 35933U 09051C   26132.44485309  .00000505  00000+0  11131-3 0  9998
2 35933  98.3987  39.4187 0005087 353.8769   6.2369 14.61659829883963
ITUPSAT1                
1 35935U 09051E   26132.19897173  .00000466  00000+0  10629-3 0  9995
2 35935  98.4072  38.3987 0007512   1.1749 358.9467 14.60384459883489
DMSP 5D-3 F18 (USA 210) 
1 35951U 09057A   26132.57070027  .00000209  00000+0  13117-3 0  9992
2 35951  98.9026 113.4213 0011070 358.7390   1.3754 14.14875927854553
PROBA-2                 
1 36037U 09059B   26132.33945914  .00000116  00000+0  37676-4 0  9994
2 36037  98.2450 316.1901 0013982  36.3349 323.8795 14.54846792876313
YAOGAN-7                
1 36110U 09069A   26132.27521534  .00000257  00000+0  42767-4 0  9991
2 36110  98.0115  18.3567 0025170 152.2046 208.0516 14.77972640884326
XIWANG-1 (HOPE-1)       
1 36122U 09072B   26132.60029622  .00000292  00000+0  88010-3 0  9995
2 36122 100.4002  87.0047 0007116 319.7332  40.3253 13.16439926788321
COSMOS 2463             
1 36519U 10017A   26132.65569922  .00000045  00000+0  33295-4 0  9995
2 36519  82.9586 275.8139 0035194 227.1347 144.0237 13.71663250803069
CARTOSAT-2B             
1 36795U 10035A   26132.60943527 -.00000008  00000+0  61457-5 0  9995
2 36795  97.9981 183.3814 0010398 311.2415  48.7899 14.78614299854598
TISAT 1                 
1 36799U 10035E   26132.30006252  .00011612  00000+0  39861-3 0  9995
2 36799  98.0689  75.7118 0003584  54.2258 305.9314 15.30322973862210
YAOGAN-10               
1 36834U 10038A   26132.65408417  .00001585  00000+0  19102-3 0  9999
2 36834  97.9008 156.3414 0001531  91.2042  12.8434 14.85239139851934
SHIJIAN-6 04B (SJ-6 04B)
1 37180U 10051B   26132.58398222 -.00000100  00000+0 -31053-5 0  9998
2 37180  97.8737 137.6323 0012704  66.6580 293.5978 14.99260319850349
FENGYUN 3B              
1 37214U 10059A   26132.60937906 -.00000038  00000+0  40354-5 0  9998
2 37214  98.9652 178.4681 0021026 288.9562 226.9805 14.14832964802390
COSMO-SKYMED 4          
1 37216U 10060A   26132.66318075  .00000385  00000+0  54876-4 0  9995
2 37216  97.8891 316.7780 0001362  83.1383 276.9985 14.82153570839308
O/OREOS (USA 219)       
1 37224U 10062C   26132.23141582  .00001150  00000+0  11480-3 0  9990
2 37224  71.9684 161.7745 0013096 141.4160 218.7949 14.93590846111273
RESOURCESAT-2           
1 37387U 11015A   26132.61616970  .00000032  00000+0  34977-4 0  9994
2 37387  98.7655 200.3004 0011222   6.3997 353.7322 14.21604166781126
YOUTHSAT                
1 37388U 11015B   26132.66476483  .00000125  00000+0  70175-4 0  9996
2 37388  98.3666 108.3256 0015757  86.4379  87.5221 14.25614781782579
APRIZESAT 6             
1 37793U 11044F   26132.53106447  .00000364  00000+0  58979-4 0  9997
2 37793  98.2385  42.3004 0042623 198.3748 335.1347 14.76865501791888
JUGNU                   
1 37839U 11058B   26131.82540796  .00000374  00000+0  56033-4 0  9993
2 37839  19.9590 169.3361 0018723  35.3987 121.4144 14.13765712753874
SRMSAT                  
1 37841U 11058D   26132.52303127  .00000367  00000+0  55161-4 0  9992
2 37841  19.9726 275.3416 0011690 171.3619 254.3476 14.11567656752773
