OBJECT_NAME,OBJECT_ID,EPOCH,MEAN_MOTION,ECCENTRICITY,INCLINATION,RA_OF_ASC_NODE,ARG_OF_PERICENTER,MEAN_ANOMALY,EPHEMERIS_TYPE,CLASSIFICATION_TYPE,NORAD_CAT_ID,ELEMENT_SET_NO,REV_AT_EPOCH,BSTAR,MEAN_MOTION_DOT,MEAN_MOTION_DDOT
CHUANGXIN 1-02 (CX-1-02),2008-056B,2026-05-12T14:47:46.612608,14.30145941,.00130883,98.6165,159.2346,243.0391,116.9455,0,U,33434,999,91353,.80373768E-4,.164E-5,0
STARS (KUKAI),2009-002G,2026-05-12T13:25:50.663424,14.95498777,.00070641,98.1530,78.4265,293.3575,66.6901,0,U,33498,999,93315,.15784704E-3,.1685E-4,0
KKS-1 (KISEKI),2009-002H,2026-05-12T13:34:43.888800,14.83028456,.00090586,98.1195,54.4461,52.2747,307.9286,0,U,33499,999,93091,.10738144E-3,.818E-5,0
UK-DMC 2,2009-041C,2026-05-12T15:14:29.897664,14.75971593,.00016768,97.8778,268.4826,81.0748,279.0652,0,U,35683,999,90132,.9229769E-4,.586E-5,0
OCEANSAT-2,2009-051A,2026-05-12T14:23:16.760256,13.99648232,.00151856,98.2298,123.0073,341.9178,18.1447,0,U,35931,999,87435,.61766004E-4,.53E-6,0
SWISSCUBE,2009-051B,2026-05-12T05:57:59.624928,14.62409745,.00062545,98.4058,39.5092,336.3034,23.7877,0,U,35932,999,88390,.13145412E-3,.616E-5,0
BEESAT-1,2009-051C,2026-05-12T10:40:35.306976,14.61659829,.00050878,98.3987,39.4187,353.8769,6.2369,0,U,35933,999,88396,.11131312E-3,.505E-5,0
ITUPSAT1,2009-051E,2026-05-12T04:46:31.157472,14.60384459,.0007512,98.4072,38.3987,1.1749,358.9467,0,U,35935,999,88348,.10628796E-3,.466E-5,0
DMSP 5D-3 F18 (USA 210),2009-057A,2026-05-12T13:41:48.503328,14.14875927,.001107,98.9026,113.4213,358.7390,1.3754,0,U,35951,999,85455,.13116585E-3,.209E-5,0
PROBA-2,2009-059B,2026-05-12T08:08:49.269696,14.54846792,.00139824,98.2450,316.1901,36.3349,323.8795,0,U,36037,999,87631,.37676315E-4,.116E-5,0
YAOGAN-7,2009-069A,2026-05-12T06:36:18.605376,14.77972640,.00251702,98.0115,18.3567,152.2046,208.0516,0,U,36110,999,88432,.42766861E-4,.257E-5,0
XIWANG-1 (HOPE-1),2009-072B,2026-05-12T14:24:25.593408,13.16439926,.00071163,100.4002,87.0047,319.7332,40.3253,0,U,36122,999,78832,.88010433E-3,.292E-5,0
COSMOS 2463,2010-017A,2026-05-12T15:44:12.412608,13.71663250,.00351943,82.9586,275.8139,227.1347,144.0237,0,U,36519,999,80306,.33294637E-4,.45E-6,0
CARTOSAT-2B,2010-035A,2026-05-12T14:37:35.207328,14.78614299,.0010398,97.9981,183.3814,311.2415,48.7899,0,U,36795,999,85459,.6145683E-5,-.8E-7,0
TISAT 1,2010-035E,2026-05-12T07:12:05.401728,15.30322973,.00035841,98.0689,75.7118,54.2258,305.9314,0,U,36799,999,86221,.39860545E-3,.11612E-3,0
YAOGAN-10,2010-038A,2026-05-12T15:41:52.872288,14.85239139,.00015314,97.9008,156.3414,91.2042,12.8434,0,U,36834,999,85193,.1910162E-3,.1585E-4,0
SHIJIAN-6 04B (SJ-6 04B),2010-051B,2026-05-12T14:00:56.063808,14.99260319,.00127043,97.8737,137.6323,66.6580,293.5978,0,U,37180,999,85034,-.3105342E-5,-.1E-5,0
FENGYUN 3B,2010-059A,2026-05-12T14:37:30.350784,14.14832964,.00210264,98.9652,178.4681,288.9562,226.9805,0,U,37214,999,80239,.4035369E-5,-.38E-6,0
COSMO-SKYMED 4,2010-060A,2026-05-12T15:54:58.816800,14.82153570,.00013625,97.8891,316.7780,83.1383,276.9985,0,U,37216,999,83930,.54876388E-4,.385E-5,0
O/OREOS (USA 219),2010-062C,2026-05-12T05:33:14.326848,14.93590846,.0013096,71.9684,161.7745,141.4160,218.7949,0,U,37224,999,11127,.11480479E-3,.115E-4,0
RESOURCESAT-2,2011-015A,2026-05-12T14:47:17.062080,14.21604166,.00112229,98.7655,200.3004,6.3997,353.7322,0,U,37387,999,78112,.34976863E-4,.32E-6,0
YOUTHSAT,2011-015B,2026-05-12T15:57:15.681312,14.25614781,.00157572,98.3666,108.3256,86.4379,87.5221,0,U,37388,999,78257,.70175054E-4,.125E-5,0
APRIZESAT 6,2011-044F,2026-05-12T12:44:43.970208,14.76865501,.00426236,98.2385,42.3004,198.3748,335.1347,0,U,37793,999,79188,.58978929E-4,.364E-5,0
JUGNU,2011-058B,2026-05-11T19:48:35.247744,14.13765712,.00187238,19.9590,169.3361,35.3987,121.4144,0,U,37839,999,75387,.56032605E-4,.374E-5,0
SRMSAT,2011-058D,2026-05-12T12:33:09.901728,14.11567656,.00116903,19.9726,275.3416,171.3619,254.3476,0,U,37841,999,75277,.55161456E-4,.367E-5,0
